#aV2007 10 31  0  0   .00000000      96 DD+AD WGS84 FIT  NGA
## 1451 259200.00000000   900.00000000 54404  .0000000000000
+   31     1  2  3  4  5  6  7  8  9 10 11 12 13 14 15 16 17
+         18 19 20 21 22 23 24 25 26 27 28 30 31 32  0  0  0
+          0  0  0  0  0  0  0  0  0  0  0  0  0  0  0  0  0
+          0  0  0  0  0  0  0  0  0  0  0  0  0  0  0  0  0
+          0  0  0  0  0  0  0  0  0  0  0  0  0  0  0  0  0
++         0  0  0  0  0  0  0  0  0  0  0  0  0  0  0  0  0
++         0  0  0  0  0  0  0  0  0  0  0  0  0  0  0  0  0
++         0  0  0  0  0  0  0  0  0  0  0  0  0  0  0  0  0
++         0  0  0  0  0  0  0  0  0  0  0  0  0  0  0  0  0
++         0  0  0  0  0  0  0  0  0  0  0  0  0  0  0  0  0
%c cc cc ccc ccc cccc cccc cccc cccc ccccc ccccc ccccc ccccc
%c cc cc ccc ccc cccc cccc cccc cccc ccccc ccccc ccccc ccccc
%f  0.0000000  0.000000000  0.00000000000  0.000000000000000
%f  0.0000000  0.000000000  0.00000000000  0.000000000000000
%i    0    0    0    0      0      0      0      0         0
%i    0    0    0    0      0      0      0      0         0
/*      NGA, ST. LOUIS,MO.                                  
/*   EPHEMERIS COMPUTED FROM  3 DAYS OF DATA                
/* CCCCCCCCCCCCCCCCCCCCCCCCCCCCCCCCCCCCCCCCCCCCCCCCCCCCCCCCC
/* CCCCCCCCCCCCCCCCCCCCCCCCCCCCCCCCCCCCCCCCCCCCCCCCCCCCCCCCC
*  2007 10 31  5 30   .00000000                                                 
P  1 -17505.214071 -12697.080932 -15257.298743    163.618449                    
V  1  -7573.549728 -18209.840052  23433.647582       .029724                    
P  2  17931.007067  -2955.459349 -19454.782013    147.602091                    
V  2 -10878.988368  21953.833300 -13802.962646       .027830                    
P  3 -18580.531276  -1765.222821  18780.593988    137.335339                    
V  3 -12745.182451 -20825.622606 -14040.786089       .053639                    
P  4  12658.199539   9166.649847 -21537.912000    -19.315542                    
V  4 -14360.982347  23155.298224   1781.576892      -.040468                    
P  5   9241.664168 -15294.098404 -19869.468894    507.751999                    
V  5  24806.850431   -641.371538  12335.203872       .261084                    
P  6  -4650.239288 -23455.866213 -11349.341699    227.393398                    
V  6  10478.050559  10864.670678 -26353.088373      -.073131                    
P  7  -7298.296200 -23637.556847  -9287.987743    -34.805356                    
V  7   9574.536431   8453.767016 -28064.627575       .097253                    
P  8   5368.361065  16294.405648  20033.607752   -128.238814                    
V  8 -15076.310225  20915.783758 -13355.512349      -.012022                    
P  9  14516.826686 -21708.121842   3645.159578     94.515101                    
V  9   -123.890039   6075.600817  31598.431841       .017355                    
P 10  26560.423933  -1051.236142   2770.024162   -126.542796                    
V 10   3547.774271   2469.105982 -31414.422848      -.132169                    
P 11 -11542.729117  23475.198797   3379.822722     25.452448                    
V 11  -3262.202445  -6031.862769  29959.928370       .002724                    
P 12  15841.672293 -12054.872861 -17461.943757   -346.686725                    
V 12  22357.415796   1881.762621  18951.953419      -.012819                    
P 13   4456.820387  23926.053349 -10770.506816    217.736992                    
V 13  -7461.759758 -11304.853744 -28449.652568       .027128                    
P 14 -15390.649734 -20950.975829  -5596.519443   -323.243062                    
V 14  -1816.970239  -7186.108638  31258.843971       .025349                    
P 15  12044.822125  -9610.116230  21659.783548    -95.114262                    
V 15  13987.113692  23624.356958   2675.208016       .125026                    
P 16 -26465.474067  -2157.119086  -2220.195927    122.431862                    
V 16   2949.369768  -2502.874798 -31551.135507       .019461                    
P 17  15278.688083  21403.129595  -4225.262992     50.216001                    
V 17    259.793717   5994.950114  31036.964363      -.010916                    
P 18  -4556.729954 -15457.578392  21325.681758   -228.303171                    
V 18  26668.069967    809.538188   5986.319055       .021421                    
P 19 -12723.289932   8750.093024  21688.441356      4.329478                    
V 19 -12175.204753 -24496.384228   2899.871973       .021325                    
P 20 -12557.428449  13710.157206 -19056.198442    127.022582                    
V 20 -24040.264758  -1330.956424  15001.520088      -.006274                    
P 21   2488.488866 -22552.440683  13461.004665     77.058930                    
V 21  11743.864391 -12869.080061 -24582.089835      -.003852                    
P 22 -18141.476659 -12041.272623  15402.363227    201.924887                    
V 22  19373.140708  -1153.591018  22108.625948       .008990                    
P 23  -4754.726474  17947.568790 -18968.967577    304.922772                    
V 23 -12982.771618 -20228.818009 -16168.184057       .034989                    
P 24  12176.954892 -23493.632174   3883.646587     42.504978                    
V 24   4813.773245  -2411.083601 -30929.143138       .029159                    
P 25  -5321.064324  24907.839872   8167.508830    471.415512                    
V 25  -6320.833765   7905.292754 -29396.523811       .065349                    
P 26  13529.768732  -4896.603371  21893.813160     79.643034                    
V 26  13287.007445  25548.908435  -1917.200922       .124505                    
P 27   -180.012007  22535.795719  14543.683562    144.716238                    
V 27  -9618.161244  14656.884293 -24120.107594       .023896                    
P 28  15543.665772  12895.550376  17774.637009     -9.540217                    
V 28 -21781.163967    640.580426  18613.588983      -.005915                    
P 30   2570.672981 -15655.834903 -21625.508802     50.803252                    
V 30  26742.217726   -434.102477   3648.927619       .012693                    
P 31 -13765.571454  -6176.482711 -21660.099474      4.136084                    
V 31  13941.996491 -24247.141964  -1855.591138      -.014087                    
P 32 -24617.896758  -7124.606873   7140.099987    120.771975                    
V 32   8650.879999  -1598.714263  30361.852445       .142021                    
EOF
